NORAD_CAT_ID,OBJECT_NAME,OBJECT_TYPE,EPOCH,MEAN_MOTION,ECCENTRICITY,INCLINATION,RA_OF_ASC_NODE,ARG_OF_PERICENTER,MEAN_ANOMALY,BSTAR,MEAN_MOTION_DOT,MEAN_MOTION_DDOT,TLE_LINE0,TLE_LINE1,TLE_LINE2,SEMIMAJOR_AXIS,PERIOD,APOGEE,PERIGEE,DECAYED
56475.0,STARLINK-5541,PAYLOAD,2024-01-03 07:55:45,14.98326035,0.0002811,70.0015,332.3102,270.2782,89.8055,-7.6009e-06,-1.84e-06,0.0,0 STARLINK-5541,1 56475U 23064AD  24003.33038586 -.00000184  00000-0 -76009-5 0  9999,2 56475  70.0015 332.3102 0002811 270.2782  89.8055 14.98326035 36450,6950.205,96.107,574.024,570.116,0.0
56475.0,STARLINK-5541,PAYLOAD,2024-01-03 22:20:57,14.98383216,0.0002701,70.0011,330.7955,259.0474,101.0382,-0.00085522,-0.00010296,0.0,0 STARLINK-5541,1 56475U 23064AD  24003.93121825 -.00010296  00000-0 -85522-3 0  9997,2 56475  70.0011 330.7955 0002701 259.0474 101.0382 14.98383216 36549,6950.028,96.104,573.771,570.016,0.0
56475.0,STARLINK-5541,PAYLOAD,2024-01-04 03:09:21,14.98332443,0.0002676,70.0012,330.2919,259.7793,100.3064,-3.6707e-05,-5.31e-06,0.0,0 STARLINK-5541,1 56475U 23064AD  24004.13150140 -.00000531  00000-0 -36707-4 0  9995,2 56475  70.0012 330.2919 0002676 259.7793 100.3064 14.98332443 36935,6950.185,96.107,573.91,570.19,0.0
56475.0,STARLINK-5541,PAYLOAD,2024-01-04 07:57:45,14.98333591,0.0002637,70.0016,329.7872,258.473,101.6133,-1.4811e-05,-2.7e-06,0.0,0 STARLINK-5541,1 56475U 23064AD  24004.33177951 -.00000270  00000-0 -14811-4 0  9998,2 56475  70.0016 329.7872 0002637 258.4730 101.6133 14.98333591 36604,6950.182,96.107,573.88,570.214,0.0
56475.0,STARLINK-5541,PAYLOAD,2024-01-04 22:22:58,14.98329518,0.000283,70.0018,328.2714,269.6717,90.4118,7.5238e-05,8.05e-06,0.0,0 STARLINK-5541,1 56475U 23064AD  24004.93261846  .00000805  00000-0  75238-4 0  9993,2 56475  70.0018 328.2714 0002830 269.6717  90.4118 14.98329518 36690,6950.194,96.107,574.026,570.092,0.0
56475.0,STARLINK-5541,PAYLOAD,2024-01-05 04:47:30,14.98326178,0.0002674,70.0021,327.5999,263.3293,96.7561,0.00010121,1.115e-05,0.0,0 STARLINK-5541,1 56475U 23064AD  24005.19966004  .00001115  00000-0  10121-3 0  9994,2 56475  70.0021 327.5999 0002674 263.3293  96.7561 14.98326178 37092,6950.205,96.107,573.928,570.211,0.0
56475.0,STARLINK-5541,PAYLOAD,2024-01-05 07:59:46,14.98330386,0.0002851,70.0012,327.2611,272.5213,87.5619,0.00010325,1.139e-05,0.0,0 STARLINK-5541,1 56475U 23064AD  24005.33317716  .00001139  00000-0  10325-3 0  9992,2 56475  70.0012 327.2611 0002851 272.5213  87.5619 14.98330386 36751,6950.192,96.107,574.038,570.075,0.0
56475.0,STARLINK-5541,PAYLOAD,2024-01-05 22:24:59,14.98306804,0.0002802,70.0022,325.7455,258.8296,101.2548,0.00032321,3.763e-05,0.0,0 STARLINK-5541,1 56475U 23064AD  24005.93402219  .00003763  00000-0  32321-3 0  9996,2 56475  70.0022 325.7455 0002802 258.8296 101.2548 14.98306804 36848,6950.265,96.108,574.077,570.182,0.0
56475.0,STARLINK-5541,PAYLOAD,2024-01-06 04:49:31,14.98326507,0.0002628,70.0016,325.0739,255.858,104.2287,-4.2865e-05,-6.04e-06,0.0,0 STARLINK-5541,1 56475U 23064AD  24006.20106324 -.00000604  00000-0 -42865-4 0  9993,2 56475  70.0016 325.0739 0002628 255.8580 104.2287 14.98326507 37248,6950.204,96.107,573.895,570.242,0.0
56475.0,STARLINK-5541,PAYLOAD,2024-01-06 08:01:47,14.98327462,0.000268,70.0015,324.7375,258.4857,101.6001,-3.7403e-05,-5.39e-06,0.0,0 STARLINK-5541,1 56475U 23064AD  24006.33458273 -.00000539  00000-0 -37403-4 0  9999,2 56475  70.0015 324.7375 0002680 258.4857 101.6001 14.98327462 36901,6950.201,96.107,573.928,570.203,0.0
56475.0,STARLINK-5541,PAYLOAD,2024-01-06 22:27:00,14.9833382,0.0002801,70.0011,323.2216,265.5713,94.5126,-9.0154e-05,-1.169e-05,0.0,0 STARLINK-5541,1 56475U 23064AD  24006.93541966 -.00001169  00000-0 -90154-4 0  9999,2 56475  70.0011 323.2216 0002801 265.5713  94.5126 14.98333820 36992,6950.181,96.107,573.993,570.099,0.0
56475.0,STARLINK-5541,PAYLOAD,2024-01-07 06:27:40,14.9833235,0.0002799,70.0011,322.3799,267.1726,92.9113,2.8624e-06,-5.9e-07,0.0,0 STARLINK-5541,1 56475U 23064AD  24007.26921761 -.00000059  00000-0  28624-5 0  9991,2 56475  70.0011 322.3799 0002799 267.1726  92.9113 14.98332350 37408,6950.186,96.107,573.996,570.105,0.0
56475.0,STARLINK-5541,PAYLOAD,2024-01-07 22:29:01,14.983283,0.0002836,70.0011,320.6971,266.0614,94.022,3.4123e-05,3.14e-06,0.0,0 STARLINK-5541,1 56475U 23064AD  24007.93681889  .00000314  00000-0  34123-4 0  9992,2 56475  70.0011 320.6971 0002836 266.0614  94.0220 14.98328300 37140,6950.198,96.107,574.034,570.092,0.0
56475.0,STARLINK-5541,PAYLOAD,2024-01-08 06:29:41,14.98331088,0.0002611,70.0012,319.8557,263.3187,96.7675,4.9097e-05,4.93e-06,0.0,0 STARLINK-5541,1 56475U 23064AD  24008.27061685  .00000493  00000-0  49097-4 0  9990,2 56475  70.0012 319.8557 0002611 263.3187  96.7675 14.98331088 37552,6950.19,96.107,573.869,570.24,0.0
56475.0,STARLINK-5541,PAYLOAD,2024-01-08 22:31:02,14.983299,0.0002773,70.0012,318.1725,266.2449,93.8393,-7.5358e-06,-1.83e-06,0.0,0 STARLINK-5541,1 56475U 23064AD  24008.93821890 -.00000183  00000-0 -75358-5 0  9993,2 56475  70.0012 318.1725 0002773 266.2449  93.8393 14.98329900 37299,6950.193,96.107,573.985,570.131,0.0
56475.0,STARLINK-5541,PAYLOAD,2024-01-09 06:31:42,14.98332834,0.0002743,70.0014,317.3312,265.7684,94.3162,2.7433e-05,2.34e-06,0.0,0 STARLINK-5541,1 56475U 23064AD  24009.27201581  .00000234  00000-0  27433-4 0  9995,2 56475  70.0014 317.3312 0002743 265.7684  94.3162 14.98332834 37702,6950.184,96.107,573.956,570.143,0.0
56475.0,STARLINK-5541,PAYLOAD,2024-01-09 22:33:02,14.98330004,0.0002681,70.0014,315.6469,267.439,92.6462,-1.6753e-05,-2.93e-06,0.0,0 STARLINK-5541,1 56475U 23064AD  24009.93961780 -.00000293  00000-0 -16753-4 0  9992,2 56475  70.0014 315.6469 0002681 267.4390  92.6462 14.98330004 37442,6950.193,96.107,573.921,570.195,0.0
56475.0,STARLINK-5541,PAYLOAD,2024-01-10 06:33:43,14.98331778,0.0002658,70.0015,314.8056,266.875,93.2105,5.6808e-06,-2.5e-07,0.0,0 STARLINK-5541,1 56475U 23064AD  24010.27341590 -.00000025  00000-0  56808-5 0  9990,2 56475  70.0015 314.8056 0002658 266.8750  93.2105 14.98331778 37858,6950.187,96.107,573.9,570.205,0.0
56475.0,STARLINK-5541,PAYLOAD,2024-01-11 06:35:43,14.98333859,0.0002571,70.0017,312.2803,258.595,101.4921,4.3304e-05,4.24e-06,0.0,0 STARLINK-5541,1 56475U 23064AD  24011.27481217  .00000424  00000-0  43304-4 0  9990,2 56475  70.0017 312.2803 0002571 258.5950 101.4921 14.98333859 38004,6950.181,96.107,573.833,570.259,0.0
56475.0,STARLINK-5541,PAYLOAD,2024-01-11 19:24:48,14.98325921,0.0002357,70.0021,310.9339,254.1155,105.9744,-1.3393e-06,-1.09e-06,0.0,0 STARLINK-5541,1 56475U 23064AD  24011.80889801 -.00000109  00000-0 -13393-5 0  9998,2 56475  70.0021 310.9339 0002357 254.1155 105.9744 14.98325921 38080,6950.206,96.107,573.709,570.432,0.0
56475.0,STARLINK-5541,PAYLOAD,2024-01-11 21:00:56,14.98326097,0.0002428,70.0019,310.7656,249.8538,110.236,-2.2996e-06,-1.2e-06,0.0,0 STARLINK-5541,1 56475U 23064AD  24011.87565771 -.00000120  00000-0 -22996-5 0  9994,2 56475  70.0019 310.7656 0002428 249.8538 110.2360 14.98326097 37731,6950.205,96.107,573.757,570.382,0.0
56475.0,STARLINK-5541,PAYLOAD,2024-01-12 05:01:37,14.98325395,0.000246,70.002,309.9242,249.827,110.2624,-1.0728e-05,-2.21e-06,0.0,0 STARLINK-5541,1 56475U 23064AD  24012.20945925 -.00000221  00000-0 -10728-4 0  9996,2 56475  70.0020 309.9242 0002460 249.8270 110.2624 14.98325395 37781,6950.207,96.107,573.782,570.362,0.0
56475.0,STARLINK-5541,PAYLOAD,2024-01-12 19:26:49,14.98329226,0.0002417,70.002,308.4093,253.3057,106.7837,-1.4522e-05,-2.66e-06,0.0,0 STARLINK-5541,1 56475U 23064AD  24012.81029797 -.00000266  00000-0 -14522-4 0  9998,2 56475  70.0020 308.4093 0002417 253.3057 106.7837 14.98329226 38238,6950.195,96.107,573.74,570.38,0.0
56475.0,STARLINK-5541,PAYLOAD,2024-01-12 22:39:06,14.98325753,0.000254,70.0013,308.0717,255.7629,104.3248,-3.5941e-05,-5.22e-06,0.0,0 STARLINK-5541,1 56475U 23064AD  24012.94382089 -.00000522  00000-0 -35941-4 0  9991,2 56475  70.0013 308.0717 0002540 255.7629 104.3248 14.98325753 37899,6950.206,96.107,573.836,570.306,0.0
56475.0,STARLINK-5541,PAYLOAD,2024-01-13 05:03:38,14.98326486,0.0002644,70.0009,307.3982,260.1089,99.9772,-3.0771e-05,-4.6e-06,0.0,0 STARLINK-5541,1 56475U 23064AD  24013.21086108 -.00000460  00000-0 -30771-4 0  9992,2 56475  70.0009 307.3982 0002644 260.1089  99.9772 14.98326486 37935,6950.204,96.107,573.906,570.231,0.0
56475.0,STARLINK-5541,PAYLOAD,2024-01-13 19:28:50,14.9833217,0.0002812,70.0008,305.8844,265.9464,94.1374,-9.0092e-05,-1.168e-05,0.0,0 STARLINK-5541,1 56475U 23064AD  24013.81170118 -.00001168  00000-0 -90092-4 0  9991,2 56475  70.0008 305.8844 0002812 265.9464  94.1374 14.98332170 38383,6950.186,96.107,574.006,570.097,0.0
56475.0,STARLINK-5541,PAYLOAD,2024-01-14 05:05:38,14.98340272,0.0002625,70.0009,304.8736,262.2592,97.8269,-7.2537e-05,-9.59e-06,0.0,0 STARLINK-5541,1 56475U 23064AD  24014.21225455 -.00000959  00000-0 -72537-4 0  9992,2 56475  70.0009 304.8736 0002625 262.2592  97.8269 14.98340272 38449,6950.161,96.106,573.851,570.202,0.0
56475.0,STARLINK-5541,PAYLOAD,2024-01-14 22:43:07,14.98332699,0.0002735,70.0005,303.0219,264.4087,95.676,7.7748e-05,8.35e-06,0.0,0 STARLINK-5541,1 56475U 23064AD  24014.94661466  .00000835  00000-0  77748-4 0  9998,2 56475  70.0005 303.0219 0002735 264.4087  95.6760 14.98332699 38195,6950.185,96.107,573.95,570.149,0.0
56475.0,STARLINK-5541,PAYLOAD,2024-01-15 05:07:39,14.98344809,0.0002612,70.0006,302.3497,260.7501,99.3363,5.7595e-05,5.95e-06,0.0,0 STARLINK-5541,1 56475U 23064AD  24015.21364602  .00000595  00000-0  57595-4 0  9992,2 56475  70.0006 302.3497 0002612 260.7501  99.3363 14.98344809 38590,6950.147,96.106,573.827,570.197,0.0
56475.0,STARLINK-5541,PAYLOAD,2024-01-15 21:09:00,14.9832981,0.000244,70.0024,300.6705,228.7029,131.392,-1.0519e-05,-2.18e-06,0.0,0 STARLINK-5541,1 56475U 23064AD  24015.88125593 -.00000218  00000-0 -10519-4 0  9998,2 56475  70.0024 300.6705 0002440 228.7029 131.3920 14.98329810 38334,6950.193,96.107,573.754,570.363,0.0
